[
    {
        "CCSDS_OMM_VERS": "3.0",
        "COMMENT": "GENERATED VIA SPACE-TRACK.ORG API",
        "CREATION_DATE": "2025-05-04T02:26:54",
        "ORIGINATOR": "18 SPCS",
        "OBJECT_NAME": "BD-2-G7",
        "OBJECT_ID": "2016-037A",
        "CENTER_NAME": "EARTH",
        "REF_FRAME": "TEME",
        "TIME_SYSTEM": "UTC",
        "MEAN_ELEMENT_THEORY": "SGP4",
        "EPOCH": "2025-05-03T21:43:31.033056",
        "MEAN_MOTION": "1.00267304",
        "ECCENTRICITY": "0.00101090",
        "INCLINATION": "1.6587",
        "RA_OF_ASC_NODE": "68.3474",
        "ARG_OF_PERICENTER": "339.8994",
        "MEAN_ANOMALY": "250.1437",
        "EPHEMERIS_TYPE": "0",
        "CLASSIFICATION_TYPE": "U",
        "NORAD_CAT_ID": "41586",
        "ELEMENT_SET_NO": "999",
        "REV_AT_EPOCH": "278",
        "BSTAR": "0.00000000000000",
        "MEAN_MOTION_DOT": "-0.00000363",
        "MEAN_MOTION_DDOT": "0.0000000000000",
        "SEMIMAJOR_AXIS": "42165.988",
        "PERIOD": "1436.161",
        "APOAPSIS": "35830.479",
        "PERIAPSIS": "35745.228",
        "OBJECT_TYPE": "PAYLOAD",
        "RCS_SIZE": "LARGE",
        "COUNTRY_CODE": "PRC",
        "LAUNCH_DATE": "2016-06-12",
        "SITE": "XSC",
        "DECAY_DATE": null,
        "FILE": "4718307",
        "GP_ID": "286798116",
        "TLE_LINE0": "0 BD-2-G7",
        "TLE_LINE1": "1 41586U 16037A   25123.90522029 -.00000363  00000-0  00000-0 0  9996",
        "TLE_LINE2": "2 41586   1.6587  68.3474 0010109 339.8994 250.1437  1.00267304  2783"
    }
]